{
  "links" : {
    "next" : "https://api.nasa.gov/neo/rest/v1/feed?start_date=2010-09-23&end_date=2010-09-23&detailed=true&api_key=t0TVs3DtDT2H8Oy2Zy8m2eVrNsAVKAexjcZXUckd",
    "prev" : "https://api.nasa.gov/neo/rest/v1/feed?start_date=2010-09-21&end_date=2010-09-21&detailed=true&api_key=t0TVs3DtDT2H8Oy2Zy8m2eVrNsAVKAexjcZXUckd",
    "self" : "https://api.nasa.gov/neo/rest/v1/feed?start_date=2010-09-22&end_date=2010-09-22&detailed=true&api_key=t0TVs3DtDT2H8Oy2Zy8m2eVrNsAVKAexjcZXUckd"
  },
  "element_count" : 7,
  "near_earth_objects" : {
    "2010-09-22" : [ {
      "links" : {
        "self" : "https://api.nasa.gov/neo/rest/v1/neo/3669253?api_key=t0TVs3DtDT2H8Oy2Zy8m2eVrNsAVKAexjcZXUckd"
      },
      "neo_reference_id" : "3669253",
      "name" : "(2014 HQ124)",
      "nasa_jpl_url" : "http://ssd.jpl.nasa.gov/sbdb.cgi?sstr=3669253",
      "absolute_magnitude_h" : 18.9,
      "estimated_diameter" : {
        "kilometers" : {
          "estimated_diameter_min" : 0.4411182,
          "estimated_diameter_max" : 0.9863702813
        },
        "meters" : {
          "estimated_diameter_min" : 441.1181999969,
          "estimated_diameter_max" : 986.3702813054
        },
        "miles" : {
          "estimated_diameter_min" : 0.2740980571,
          "estimated_diameter_max" : 0.6129018881
        },
        "feet" : {
          "estimated_diameter_min" : 1447.2382352778,
          "estimated_diameter_max" : 3236.1230737181
        }
      },
      "is_potentially_hazardous_asteroid" : true,
      "close_approach_data" : [ {
        "close_approach_date" : "2010-09-22",
        "epoch_date_close_approach" : 1285138800000,
        "relative_velocity" : {
          "kilometers_per_second" : "12.2332722553",
          "kilometers_per_hour" : "44039.7801192316",
          "miles_per_hour" : "27364.6067079747"
        },
        "miss_distance" : {
          "astronomical" : "0.497119657",
          "lunar" : "193.3795471191",
          "kilometers" : "74368048",
          "miles" : "46210160"
        },
        "orbiting_body" : "Earth"
      } ],
      "orbital_data" : {
        "orbit_id" : "46",
        "orbit_determination_date" : "2017-09-18 06:53:52",
        "orbit_uncertainty" : "1",
        "minimum_orbit_intersection" : ".00780919",
        "jupiter_tisserand_invariant" : "6.815",
        "epoch_osculation" : "2458000.5",
        "eccentricity" : ".2591852622152756",
        "semi_major_axis" : ".8508260810584923",
        "inclination" : "26.37052472766208",
        "ascending_node_longitude" : "257.563390477906",
        "orbital_period" : "286.6550638939651",
        "perihelion_distance" : ".6303045001397517",
        "perihelion_argument" : "144.5011455144463",
        "aphelion_distance" : "1.071347661977233",
        "perihelion_time" : "2458062.635208456209",
        "mean_anomaly" : "281.9665798316067",
        "mean_motion" : "1.255864784349895",
        "equinox" : "J2000"
      }
    }, {
      "links" : {
        "self" : "https://api.nasa.gov/neo/rest/v1/neo/3673977?api_key=t0TVs3DtDT2H8Oy2Zy8m2eVrNsAVKAexjcZXUckd"
      },
      "neo_reference_id" : "3673977",
      "name" : "(2014 MA18)",
      "nasa_jpl_url" : "http://ssd.jpl.nasa.gov/sbdb.cgi?sstr=3673977",
      "absolute_magnitude_h" : 25.5,
      "estimated_diameter" : {
        "kilometers" : {
          "estimated_diameter_min" : 0.0211132445,
          "estimated_diameter_max" : 0.0472106499
        },
        "meters" : {
          "estimated_diameter_min" : 21.113244479,
          "estimated_diameter_max" : 47.2106498806
        },
        "miles" : {
          "estimated_diameter_min" : 0.0131191578,
          "estimated_diameter_max" : 0.0293353287
        },
        "feet" : {
          "estimated_diameter_min" : 69.2691770164,
          "estimated_diameter_max" : 154.8905885541
        }
      },
      "is_potentially_hazardous_asteroid" : false,
      "close_approach_data" : [ {
        "close_approach_date" : "2010-09-22",
        "epoch_date_close_approach" : 1285138800000,
        "relative_velocity" : {
          "kilometers_per_second" : "8.517946013",
          "kilometers_per_hour" : "30664.6056469782",
          "miles_per_hour" : "19053.7934365905"
        },
        "miss_distance" : {
          "astronomical" : "0.111487582",
          "lunar" : "43.3686714172",
          "kilometers" : "16678305",
          "miles" : "10363418"
        },
        "orbiting_body" : "Earth"
      } ],
      "orbital_data" : {
        "orbit_id" : "5",
        "orbit_determination_date" : "2017-04-06 08:39:57",
        "orbit_uncertainty" : "6",
        "minimum_orbit_intersection" : ".00013018",
        "jupiter_tisserand_invariant" : "6.709",
        "epoch_osculation" : "2458000.5",
        "eccentricity" : ".298858195582358",
        "semi_major_axis" : ".8774361804419604",
        "inclination" : "6.150387915474075",
        "ascending_node_longitude" : "86.96685862217208",
        "orbital_period" : "300.2076357288911",
        "perihelion_distance" : ".6152071868163997",
        "perihelion_argument" : "44.41499872580815",
        "aphelion_distance" : "1.139665174067521",
        "perihelion_time" : "2457938.986519213731",
        "mean_anomaly" : "73.76512269346557",
        "mean_motion" : "1.199170031521469",
        "equinox" : "J2000"
      }
    }, {
      "links" : {
        "self" : "https://api.nasa.gov/neo/rest/v1/neo/3645193?api_key=t0TVs3DtDT2H8Oy2Zy8m2eVrNsAVKAexjcZXUckd"
      },
      "neo_reference_id" : "3645193",
      "name" : "(2013 OY3)",
      "nasa_jpl_url" : "http://ssd.jpl.nasa.gov/sbdb.cgi?sstr=3645193",
      "absolute_magnitude_h" : 24.8,
      "estimated_diameter" : {
        "kilometers" : {
          "estimated_diameter_min" : 0.0291443905,
          "estimated_diameter_max" : 0.0651688382
        },
        "meters" : {
          "estimated_diameter_min" : 29.1443904535,
          "estimated_diameter_max" : 65.1688382168
        },
        "miles" : {
          "estimated_diameter_min" : 0.018109479,
          "estimated_diameter_max" : 0.0404940262
        },
        "feet" : {
          "estimated_diameter_min" : 95.6180819754,
          "estimated_diameter_max" : 213.8085311752
        }
      },
      "is_potentially_hazardous_asteroid" : false,
      "close_approach_data" : [ {
        "close_approach_date" : "2010-09-22",
        "epoch_date_close_approach" : 1285138800000,
        "relative_velocity" : {
          "kilometers_per_second" : "6.6538295387",
          "kilometers_per_hour" : "23953.7863394718",
          "miles_per_hour" : "14883.9512952124"
        },
        "miss_distance" : {
          "astronomical" : "0.0894649774",
          "lunar" : "34.8018760681",
          "kilometers" : "13383770",
          "miles" : "8316289.5"
        },
        "orbiting_body" : "Earth"
      } ],
      "orbital_data" : {
        "orbit_id" : "9",
        "orbit_determination_date" : "2017-04-06 08:45:17",
        "orbit_uncertainty" : "7",
        "minimum_orbit_intersection" : ".00636869",
        "jupiter_tisserand_invariant" : "6.987",
        "epoch_osculation" : "2458000.5",
        "eccentricity" : ".3438975150905612",
        "semi_major_axis" : ".8344594336431327",
        "inclination" : "2.304434117295809",
        "ascending_node_longitude" : "107.2553630500662",
        "orbital_period" : "278.4237445317889",
        "perihelion_distance" : ".5474909079693823",
        "perihelion_argument" : "45.70486167692078",
        "aphelion_distance" : "1.121427959316883",
        "perihelion_time" : "2458073.188684271239",
        "mean_anomaly" : "266.0140277128618",
        "mean_motion" : "1.292993169836839",
        "equinox" : "J2000"
      }
    } ]
  }
}